ONEWEB-0340             
1 49206U 21083W   25223.93738773 -.00000040  00000+0 -13503-3 0  9996
2 49206  87.9130  36.8720 0001805  93.6046 266.5292 13.18686145189215
ONEWEB-0341             
1 49207U 21083X   25223.94397115 -.00000031  00000+0 -11196-3 0  9995
2 49207  87.9136  36.8822 0001258  96.7634 263.3642 13.18684976189230
ONEWEB-0342             
1 49208U 21083Y   25224.03589369  .00000009  00000+0 -10569-4 0  9999
2 49208  87.9288 336.0394 0001918  95.3235 264.8117 13.20772709197274
ONEWEB-0343             
1 49209U 21083Z   25223.93984329 -.00000242  00000+0 -64626-3 0  9995
2 49209  87.9133  36.8694 0001295  81.2451 278.8828 13.18685421189281
ONEWEB-0344             
1 49210U 21083AA  25223.91499017 -.00000133  00000+0 -39802-3 0  9997
2 49210  87.8978  21.7142 0001382 101.7472 258.3812 13.13469914190299
ONEWEB-0345             
1 49211U 21083AB  25223.90653881  .00000069  00000+0  15445-3 0  9991
2 49211  87.8979  21.6682 0001328 103.0840 257.0437 13.13468895190301
ONEWEB-0346             
1 49212U 21083AC  25223.94892166  .00000012  00000+0 -11414-5 0  9990
2 49212  87.9134  36.8898 0002228 105.6131 254.5248 13.18686676189229
ONEWEB-0348             
1 49213U 21083AD  25223.87489606  .00000041  00000+0  70153-4 0  9999
2 49213  87.9295 336.0827 0001856 118.3693 241.7628 13.20773832195989
